[{"OBJECT_NAME":"KUIPER-00031","OBJECT_ID":"2025-088W","EPOCH":"2026-03-09T08:49:36.222240","MEAN_MOTION":14.83663511,"ECCENTRICITY":0.00020432,"INCLINATION":51.8994,"RA_OF_ASC_NODE":97.1214,"ARG_OF_PERICENTER":139.5452,"MEAN_ANOMALY":220.5664,"EPHEMERIS_TYPE":0,"CLASSIFICATION_TYPE":"U","NORAD_CAT_ID":63744,"ELEMENT_SET_NO":999,"REV_AT_EPOCH":4750,"BSTAR":0.00061482299,"MEAN_MOTION_DOT":4.901e-5,"MEAN_MOTION_DDOT":0},{"OBJECT_NAME":"SL-14 R\/B","OBJECT_ID":"1987-024B","EPOCH":"2026-03-09T13:42:45.789120","MEAN_MOTION":14.86131911,"ECCENTRICITY":0.0016681,"INCLINATION":82.5247,"RA_OF_ASC_NODE":92.875,"ARG_OF_PERICENTER":260.348,"MEAN_ANOMALY":99.5853,"EPHEMERIS_TYPE":0,"CLASSIFICATION_TYPE":"U","NORAD_CAT_ID":17567,"ELEMENT_SET_NO":999,"REV_AT_EPOCH":8811,"BSTAR":6.0637e-5,"MEAN_MOTION_DOT":5.57e-6,"MEAN_MOTION_DDOT":0}]
